#cP2014  3 31  0  0  0.00000000      96 ORBIT IGb08 HLM  IGS
## 1786  86400.00000000   900.00000000 56747 0.0000000000000
+   31   G01G02G03G04G05G07G08G09G10G11G12G13G14G15G16G17G18
+        G19G20G21G22G23G24G25G26G27G28G29G30G31G32  0  0  0
+          0  0  0  0  0  0  0  0  0  0  0  0  0  0  0  0  0
+          0  0  0  0  0  0  0  0  0  0  0  0  0  0  0  0  0
+          0  0  0  0  0  0  0  0  0  0  0  0  0  0  0  0  0
++         2  2  2  2  2  2  2  2  3  2  2  2  2  2  2  2  2
++         2  2  2  2  2  2  2  2  2  2  2  0  2  2  0  0  0
++         0  0  0  0  0  0  0  0  0  0  0  0  0  0  0  0  0
++         0  0  0  0  0  0  0  0  0  0  0  0  0  0  0  0  0
++         0  0  0  0  0  0  0  0  0  0  0  0  0  0  0  0  0
%c G  cc GPS ccc cccc cccc cccc cccc ccccc ccccc ccccc ccccc
%c cc cc ccc ccc cccc cccc cccc cccc ccccc ccccc ccccc ccccc
%f  1.2500000  1.025000000  0.00000000000  0.000000000000000
%f  0.0000000  0.000000000  0.00000000000  0.000000000000000
%i    0    0    0    0      0      0      0      0         0
%i    0    0    0    0      0      0      0      0         0
/* FINAL ORBIT COMBINATION FROM WEIGHTED AVERAGE OF:        
/* cod emr esa gfz grg jpl mit ngs sio                      
/* REFERENCED TO IGS TIME (IGST) AND TO WEIGHTED MEAN POLE: 
/* PCV:IGS08_1787 OL/AL:FES2004  NONE     Y  ORB:CMB CLK:CMB
*  2014  3 31  6  0  0.00000000
PG01  20837.665051  10067.920416  13119.980352      6.528536  5  7  6  79       
PG02 -13190.843092 -22277.562028   7280.374919    486.984556  4 10  4 126       
PG03  14133.868004  10778.093793 -20326.183359    345.565725  7  7  6 117       
PG04    -55.565094 -19508.337482  17610.901881      6.364801  6  6  3 101       
PG05  -5687.233156 -20041.717657 -16418.218293   -381.553841  5  9  4 107       
PG07  15735.883459  -3514.081353 -21099.006034    329.970241  5  7  6 135       
PG08   8414.178857 -12493.456090 -21631.411554     12.617882  5  8  6 128       
PG09   5891.767511 -15119.899254 -21525.227859    316.492428  4  7  6 130       
PG10   8164.411662 -25020.706534   -990.628427 999999.999999
PG11  23672.784658  11982.238287   2262.281865   -476.657725  5  8  5  98       
PG12 -13965.661941  -4339.508002  22106.230101    195.558953  4  4  5 126       
PG13  25864.782365  -5049.935885  -4060.684024     14.682785  4  7  6 110       
PG14 -14329.264382  13907.340501  17652.953055    185.836825  5  7  7 120       
PG15 -21540.400296  -5977.435074 -14613.673733   -171.222554  6  8  5  84       
PG16   3992.341611  19900.715589 -16968.019535   -225.399480  6  8  6 120       
PG17  12604.376326 -14705.272732  18326.986784    -80.995457  4  8  6 107       
PG18 -16021.019579  15531.255147 -13711.432375    310.378487  4  5  6 101       
PG19  20047.204201   8755.496592 -15498.016386   -448.097600  4  7  6 121       
PG20  15734.001622   2364.443071  21073.959115    175.072626  6  6  3 115       
PG21 -14661.843740   6501.102549 -20602.692223   -352.528155  6  6  4 125       
PG22 -10565.196976  24039.986271  -3160.999361    223.371937  3  7  7 112       
PG23  25453.577715   1253.887198   8293.341122     -8.393620  5  6  5 115       
PG24 -20791.156892 -14157.089287   8659.253058    -25.862207  3  6  7 110       
PG25 -16397.725777   9675.690239  18396.771014     20.352455  6  3  6 125       
PG26 -10480.688401 -13377.369937 -21148.708380    122.931487  5  8  3 115       
PG27   8195.918000  13522.796054 -21348.089233    -20.372930  7  8  3 136       
PG28  13134.810090 -22156.302787  -5572.136485    343.655515  2  8  5 102       
PG29 -26024.124694   4899.653544  -1644.821080    522.031911  5  8  5 111       
PG30   9381.183010 -12571.402117 -21438.169071 999999.999999
PG31   3693.876298  21080.549529  15676.160723    334.050463  6  8  2 105       
PG32   8440.028713  15954.607679  19712.203190   -458.870541  3  7  6 108       
*  2014  3 31  6 15  0.00000000
PG01  21613.332331  11209.863940  10739.008872      6.530065  5  7  6  82       
PG02 -12358.946365 -21783.274173   9835.425232    486.986358  4 10  4 128       
PG03  12055.512877  11690.218776 -21152.181563    345.570576  6  7  6 108       
PG04   1565.250691 -18057.654631  19029.322366      6.365057  5  6  4 100       
PG05  -4974.435251 -21674.025874 -14438.432372   -381.552040  5  9  4 101       
PG07  17261.252637  -1708.772210 -20139.159794    329.974462  4  7  6 133       
PG08   9944.038364 -10472.989613 -22100.150040     12.617619  5  8  6 127       
PG09   7545.194546 -13401.941515 -22168.817672    316.495338  4  7  6 130       
PG10   8462.773748 -24835.074763   1853.081370   -120.034535  7  9  7 105       
PG11  23597.444597  12439.180451   -431.352579   -476.660179  5  8  5 101       
PG12 -13138.442696  -6731.572139  22034.027148    195.561099  3  3  5 125       
PG13  26170.171837  -4892.977013  -1201.142029     14.679297  4  7  6 112       
PG14 -16209.937989  14045.472431  15783.100389    185.833923  5  6  7 123       
PG15 -19885.444886  -6634.253569 -16529.762706   -171.224421  6  8  5 102       
PG16   3227.385852  21566.167643 -14939.897975   -225.397755  5  8  6 123       
PG17  14556.867792 -14920.108038  16579.769493    -80.998343  4  8  6 111       
PG18 -15787.437949  13750.253600 -15708.400857    310.380610  4  5  5 102       
PG19  18239.263215   9133.945689 -17373.489322   -448.099647  4  8  6 118       
PG20  15164.456723   4762.529898  21092.272781    175.075853  6  5  3 116       
PG21 -16292.048559   4670.877403 -19926.066155   -352.530374  6  6  4 120       
PG22 -10758.716468  23412.900719  -5886.394235    223.374285  2  6  7 102       
PG23  24455.720556   1700.523405  10819.838221     -8.396421  5  6  5 119       
PG24 -21192.732871 -14932.262287   5983.158504    -25.863335  3  5  7 110       
PG25 -15869.968378   7538.167174  19812.338551     20.353550  6  3  6 119       
PG26  -8187.401371 -13714.565023 -21928.843398    122.921354  5  8  2 104       
PG27   5804.356757  14117.190002 -21739.502145    -20.372689  7  8  3 128       
PG28  13009.967216 -21274.015183  -8336.462027    343.658041  3  8  5  84       
PG29 -26093.888228   4670.904424   1228.810651    522.034598  5  8  5 104       
PG30  10940.203669 -10656.112748 -21736.564744 999999.999999
PG31   2339.228049  19762.478382  17585.266627    334.050700  6  7  2 102       
PG32   7535.588989  17915.308582  18392.665004   -458.863800  3  7  6 105       
*  2014  3 31  6 30  0.00000000
PG01  22246.221176  12115.395127   8174.252093      6.531576  4  7  6  66       
PG02 -11300.976842 -21145.849841  12227.652135    486.988299  4 10  3 129       
PG03   9960.096298  12735.378147 -21631.955973    345.575142  6  7  6 114       
PG04   3356.913079 -16587.799564  20109.740758      6.365572  5  7  5  98       
PG05  -4398.464478 -23108.859768 -12208.870955   -381.550500  5  9  5 119       
PG07  18789.708066    -82.125044 -18833.506149    329.978007  4  7  6 139       
PG08  11603.203000  -8523.429174 -22181.706275     12.618475  4  8  6 122       
PG09   9328.755517 -11747.261937 -22448.503906    316.498832  4  8  6 128       
PG10   8691.431253 -24350.293811   4663.920492   -120.035847  8  9  6  86       
PG11  23273.742770  12764.372225  -3117.702492   -476.663112  5  8  5  98       
PG12 -12455.629642  -9135.394686  21581.072292    195.563031  4  4  5 126       
PG13  26165.162899  -4693.354793   1678.851029     14.675903  4  7  6 108       
PG14 -17861.599685  14236.079220  13643.767441    185.830907  5  5  7 121       
PG15 -18074.399198  -7434.830057 -18165.694949   -171.226402  7  8  4 100       
PG16   2626.059487  23037.226576 -12650.972534   -225.396291  5  9  7 112       
PG17  16291.601821 -15186.549866  14549.628241    -81.001458  3  8  5 109       
PG18 -15585.922208  11752.283633 -17422.919224    310.382404  4  5  5  92       
PG19  16262.297982   9647.146579 -18957.728411   -448.101812  4  8  5 121       
PG20  14709.953830   7164.972408  20741.476389    175.078864  6  5  4 109       
PG21 -17929.293234   2991.221606 -18890.580085   -352.532132  5  6  5 105       
PG22 -10911.591629  22499.893097  -8508.962393    223.376779  2  6  7 108       
PG23  23219.646403   2272.757359  13164.981818     -8.399261  5  6  4 106       
PG24 -21408.797578 -15475.103459   3204.615587    -25.864360  3  5  7 113       
PG25 -15426.242069   5238.174363  20883.904295     20.354615  6  2  6 117       
PG26  -5850.593287 -14193.328075 -22354.843511    122.911343  6  8  2  97       
PG27   3424.559884  14842.779626 -21756.968521    -20.372448  6  7  3 133       
PG28  12846.034874 -20086.463207 -10952.855285    343.660499  3  8  5 107       
PG29 -25859.822830   4370.746365   4081.241934    522.036991  5  8  5  96       
PG30  12604.806801  -8815.065169 -21661.168001 999999.999999
PG31    776.843881  18380.516618  19191.663248    334.050720  6  7  2 100       
PG32   6786.677614  19759.915556  16763.586035   -458.857140  3  7  6  86       
EOF
